NOAA 5                  
1 09057U 76077A   24298.83416469 -.00000009  00000+0  28410-3 0  9991
2 09057 102.2272 272.1100 0010018 359.6163  61.0555 12.37807663180199
